EUTELSAT QUANTUM        
1 49056U 21069B   25282.14424589  .00000000  00000+0  00000+0 0  9996
2 49056   0.0094 246.0171 0002933 345.4285 246.1846  1.00272361 15412
EUTELSAT KONNECT VHTS   
1 53765U 22110A   25281.77856221  .00000019  00000+0  00000+0 0  9996
2 53765   0.0555 101.0216 0003038  81.3598 118.2518  1.00273275  4302
EUTELSAT HOTBIRD 13F    
1 54048U 22134A   25282.10322479  .00000088  00000+0  00000+0 0  9994
2 54048   0.0565 281.9912 0002014  75.0182  71.1393  1.00270874 10858
EUTELSAT HOTBIRD 13G    
1 54225U 22146A   25282.10322479  .00000088  00000+0  00000+0 0  9994
2 54225   0.0484 233.7535 0002029 306.9529 247.4459  1.00271158  4948
EUTELSAT 10B            
1 54259U 22157A   25281.28070293  .00000070  00000+0  00000+0 0  9996
2 54259   0.0597  96.9255 0001863  38.5622 352.7486  1.00268744 10501
EUTELSAT 36D            
1 59346U 24059A   25282.14190588  .00000157  00000+0  00000+0 0  9993
2 59346   0.0163 223.8605 0000129 358.4862 242.6095  1.00270207  5634
